[{"OBJECT_NAME":"STARLINK-35693","OBJECT_ID":"2025-263F","EPOCH":"2026-03-09T02:43:04.851840","MEAN_MOTION":15.27570779,"ECCENTRICITY":0.00015218,"INCLINATION":43.0037,"RA_OF_ASC_NODE":353.707,"ARG_OF_PERICENTER":279.7392,"MEAN_ANOMALY":80.3287,"EPHEMERIS_TYPE":0,"CLASSIFICATION_TYPE":"U","NORAD_CAT_ID":66490,"ELEMENT_SET_NO":999,"REV_AT_EPOCH":1881,"BSTAR":0.00097873932,"MEAN_MOTION_DOT":0.00026761,"MEAN_MOTION_DDOT":0},{"OBJECT_NAME":"CZ-4B R\/B","OBJECT_ID":"2010-051C","EPOCH":"2026-03-09T16:48:37.977120","MEAN_MOTION":15.17426017,"ECCENTRICITY":0.00758037,"INCLINATION":97.7974,"RA_OF_ASC_NODE":110.8647,"ARG_OF_PERICENTER":95.044,"MEAN_ANOMALY":265.9451,"EPHEMERIS_TYPE":0,"CLASSIFICATION_TYPE":"U","NORAD_CAT_ID":37181,"ELEMENT_SET_NO":999,"REV_AT_EPOCH":84355,"BSTAR":0.00029718512,"MEAN_MOTION_DOT":6.328e-5,"MEAN_MOTION_DDOT":0}]
